ONEWEB-0018             
1 45434U 20020L   26099.24562032 -.00000088  00000+0 -28286-3 0  9990
2 45434  87.8914  34.7704 0002193  84.0664 276.0714 13.11417514293590
ONEWEB-0083             
1 45435U 20020M   26099.23630418 -.00000437  00000+0 -12692-2 0  9995
2 45435  87.8922  34.7618 0001954  78.3750 281.7598 13.11418649293638
ONEWEB-0095             
1 45436U 20020N   26099.07451450 -.00000554  00000+0 -15985-2 0  9993
2 45436  87.8916  34.8016 0001276  60.2638 299.8617 13.11415447293610
ONEWEB-0092             
1 45437U 20020P   26099.27530266  .00000525  00000+0  14449-2 0  9999
2 45437  87.8920  34.7619 0001500  80.0818 280.0479 13.11417164293755
ONEWEB-0085             
1 45438U 20020Q   26099.23544435 -.00000484  00000+0 -14019-2 0  9998
2 45438  87.8918  34.7734 0001818  79.6392 280.4941 13.11417004293632
ONEWEB-0096             
1 45439U 20020R   26099.23714790 -.00000404  00000+0 -11755-2 0  9998
2 45439  87.8926  34.7628 0001859  81.6017 278.5321 13.11417966293622
ONEWEB-0037             
1 45440U 20020S   26099.29394125 -.00000145  00000+0 -44630-3 0  9993
2 45440  87.8926  34.7294 0001751  78.1897 281.9427 13.11414538293662
ONEWEB-0042             
1 45441U 20020T   26099.07423367 -.00000534  00000+0 -15428-2 0  9995
2 45441  87.8920  34.7923 0001846  82.3436 277.7902 13.11415322293604
ONEWEB-0098             
1 45442U 20020U   26099.22273143 -.00000352  00000+0 -10289-2 0  9996
2 45442  87.8919  34.7735 0001915  77.7963 282.3379 13.11417030293602
ONEWEB-0055             
1 45443U 20020V   26099.28208464  .00000328  00000+0  88848-3 0  9995
2 45443  87.8915  34.7619 0001906  77.7003 282.4338 13.11414026293580
ONEWEB-0093             
1 45444U 20020W   26099.25764473  .00000340  00000+0  92270-3 0  9998
2 45444  87.8919  34.7566 0001787  92.4362 267.6971 13.11419203293642
ONEWEB-0029             
1 45445U 20020X   26099.27360982  .00000620  00000+0  17136-2 0  9996
2 45445  87.8914  34.7646 0001916  83.2181 276.9165 13.11415314293623
ONEWEB-0068             
1 45446U 20020Y   26099.25736801  .00000406  00000+0  11088-2 0  9994
2 45446  87.8923  34.7599 0001942  84.9700 275.1649 13.11417857293560
ONEWEB-0046             
1 45447U 20020Z   26099.24901701  .00000076  00000+0  17844-3 0  9997
2 45447  87.8923  34.7684 0001665  84.6873 275.4445 13.11417961293570
ONEWEB-0063             
1 45448U 20020AA  26099.27784307  .00000454  00000+0  12463-2 0  9993
2 45448  87.8922  34.7603 0001606  79.5943 280.5366 13.11414253293667
ONEWEB-0019             
1 45449U 20020AB  26099.24039785 -.00000307  00000+0 -90221-3 0  9992
2 45449  87.8918  34.7588 0001988  75.5155 284.6193 13.11417613293508
