[{"OBJECT_NAME":"ONEWEB-0018","OBJECT_ID":"2020-020L","EPOCH":"2026-04-09T05:53:41.595648","MEAN_MOTION":13.11417514,"ECCENTRICITY":0.0002193,"INCLINATION":87.8914,"RA_OF_ASC_NODE":34.7704,"ARG_OF_PERICENTER":84.0664,"MEAN_ANOMALY":276.0714,"EPHEMERIS_TYPE":0,"CLASSIFICATION_TYPE":"U","NORAD_CAT_ID":45434,"ELEMENT_SET_NO":999,"REV_AT_EPOCH":29359,"BSTAR":-0.00028286,"MEAN_MOTION_DOT":-8.8e-07,"MEAN_MOTION_DDOT":0.0},{"OBJECT_NAME":"ONEWEB-0083","OBJECT_ID":"2020-020M","EPOCH":"2026-04-09T05:40:16.681152","MEAN_MOTION":13.11418649,"ECCENTRICITY":0.0001954,"INCLINATION":87.8922,"RA_OF_ASC_NODE":34.7618,"ARG_OF_PERICENTER":78.375,"MEAN_ANOMALY":281.7598,"EPHEMERIS_TYPE":0,"CLASSIFICATION_TYPE":"U","NORAD_CAT_ID":45435,"ELEMENT_SET_NO":999,"REV_AT_EPOCH":29363,"BSTAR":-0.0012692,"MEAN_MOTION_DOT":-4.37e-06,"MEAN_MOTION_DDOT":0.0},{"OBJECT_NAME":"ONEWEB-0095","OBJECT_ID":"2020-020N","EPOCH":"2026-04-09T01:47:18.052800","MEAN_MOTION":13.11415447,"ECCENTRICITY":0.0001276,"INCLINATION":87.8916,"RA_OF_ASC_NODE":34.8016,"ARG_OF_PERICENTER":60.2638,"MEAN_ANOMALY":299.8617,"EPHEMERIS_TYPE":0,"CLASSIFICATION_TYPE":"U","NORAD_CAT_ID":45436,"ELEMENT_SET_NO":999,"REV_AT_EPOCH":29361,"BSTAR":-0.0015984999999999999,"MEAN_MOTION_DOT":-5.54e-06,"MEAN_MOTION_DDOT":0.0},{"OBJECT_NAME":"ONEWEB-0092","OBJECT_ID":"2020-020P","EPOCH":"2026-04-09T06:36:26.149824","MEAN_MOTION":13.11417164,"ECCENTRICITY":0.00015,"INCLINATION":87.892,"RA_OF_ASC_NODE":34.7619,"ARG_OF_PERICENTER":80.0818,"MEAN_ANOMALY":280.0479,"EPHEMERIS_TYPE":0,"CLASSIFICATION_TYPE":"U","NORAD_CAT_ID":45437,"ELEMENT_SET_NO":999,"REV_AT_EPOCH":29375,"BSTAR":0.0014449,"MEAN_MOTION_DOT":5.25e-06,"MEAN_MOTION_DDOT":0.0},{"OBJECT_NAME":"ONEWEB-0085","OBJECT_ID":"2020-020Q","EPOCH":"2026-04-09T05:39:02.391840","MEAN_MOTION":13.11417004,"ECCENTRICITY":0.0001818,"INCLINATION":87.8918,"RA_OF_ASC_NODE":34.7734,"ARG_OF_PERICENTER":79.6392,"MEAN_ANOMALY":280.4941,"EPHEMERIS_TYPE":0,"CLASSIFICATION_TYPE":"U","NORAD_CAT_ID":45438,"ELEMENT_SET_NO":999,"REV_AT_EPOCH":29363,"BSTAR":-0.0014019000000000002,"MEAN_MOTION_DOT":-4.84e-06,"MEAN_MOTION_DDOT":0.0},{"OBJECT_NAME":"ONEWEB-0096","OBJECT_ID":"2020-020R","EPOCH":"2026-04-09T05:41:29.578560","MEAN_MOTION":13.11417966,"ECCENTRICITY":0.0001859,"INCLINATION":87.8926,"RA_OF_ASC_NODE":34.7628,"ARG_OF_PERICENTER":81.6017,"MEAN_ANOMALY":278.5321,"EPHEMERIS_TYPE":0,"CLASSIFICATION_TYPE":"U","NORAD_CAT_ID":45439,"ELEMENT_SET_NO":999,"REV_AT_EPOCH":29362,"BSTAR":-0.0011755000000000001,"MEAN_MOTION_DOT":-4.04e-06,"MEAN_MOTION_DDOT":0.0},{"OBJECT_NAME":"ONEWEB-0037","OBJECT_ID":"2020-020S","EPOCH":"2026-04-09T07:03:16.524000","MEAN_MOTION":13.11414538,"ECCENTRICITY":0.0001751,"INCLINATION":87.8926,"RA_OF_ASC_NODE":34.7294,"ARG_OF_PERICENTER":78.1897,"MEAN_ANOMALY":281.9427,"EPHEMERIS_TYPE":0,"CLASSIFICATION_TYPE":"U","NORAD_CAT_ID":45440,"ELEMENT_SET_NO":999,"REV_AT_EPOCH":29366,"BSTAR":-0.0004463,"MEAN_MOTION_DOT":-1.45e-06,"MEAN_MOTION_DDOT":0.0},{"OBJECT_NAME":"ONEWEB-0042","OBJECT_ID":"2020-020T","EPOCH":"2026-04-09T01:46:53.789088","MEAN_MOTION":13.11415322,"ECCENTRICITY":0.0001846,"INCLINATION":87.892,"RA_OF_ASC_NODE":34.7923,"ARG_OF_PERICENTER":82.3436,"MEAN_ANOMALY":277.7902,"EPHEMERIS_TYPE":0,"CLASSIFICATION_TYPE":"U","NORAD_CAT_ID":45441,"ELEMENT_SET_NO":999,"REV_AT_EPOCH":29360,"BSTAR":-0.0015428,"MEAN_MOTION_DOT":-5.34e-06,"MEAN_MOTION_DDOT":0.0},{"OBJECT_NAME":"ONEWEB-0098","OBJECT_ID":"2020-020U","EPOCH":"2026-04-09T05:20:43.995552","MEAN_MOTION":13.1141703,"ECCENTRICITY":0.0001915,"INCLINATION":87.8919,"RA_OF_ASC_NODE":34.7735,"ARG_OF_PERICENTER":77.7963,"MEAN_ANOMALY":282.3379,"EPHEMERIS_TYPE":0,"CLASSIFICATION_TYPE":"U","NORAD_CAT_ID":45442,"ELEMENT_SET_NO":999,"REV_AT_EPOCH":29360,"BSTAR":-0.0010289,"MEAN_MOTION_DOT":-3.52e-06,"MEAN_MOTION_DDOT":0.0},{"OBJECT_NAME":"ONEWEB-0055","OBJECT_ID":"2020-020V","EPOCH":"2026-04-09T06:46:12.112896","MEAN_MOTION":13.11414026,"ECCENTRICITY":0.0001906,"INCLINATION":87.8915,"RA_OF_ASC_NODE":34.7619,"ARG_OF_PERICENTER":77.7003,"MEAN_ANOMALY":282.4338,"EPHEMERIS_TYPE":0,"CLASSIFICATION_TYPE":"U","NORAD_CAT_ID":45443,"ELEMENT_SET_NO":999,"REV_AT_EPOCH":29358,"BSTAR":0.0008884800000000001,"MEAN_MOTION_DOT":3.28e-06,"MEAN_MOTION_DDOT":0.0},{"OBJECT_NAME":"ONEWEB-0093","OBJECT_ID":"2020-020W","EPOCH":"2026-04-09T06:11:00.504672","MEAN_MOTION":13.11419203,"ECCENTRICITY":0.0001787,"INCLINATION":87.8919,"RA_OF_ASC_NODE":34.7566,"ARG_OF_PERICENTER":92.4362,"MEAN_ANOMALY":267.6971,"EPHEMERIS_TYPE":0,"CLASSIFICATION_TYPE":"U","NORAD_CAT_ID":45444,"ELEMENT_SET_NO":999,"REV_AT_EPOCH":29364,"BSTAR":0.0009226999999999999,"MEAN_MOTION_DOT":3.4e-06,"MEAN_MOTION_DDOT":0.0},{"OBJECT_NAME":"ONEWEB-0029","OBJECT_ID":"2020-020X","EPOCH":"2026-04-09T06:33:59.888448","MEAN_MOTION":13.11415314,"ECCENTRICITY":0.0001916,"INCLINATION":87.8914,"RA_OF_ASC_NODE":34.7646,"ARG_OF_PERICENTER":83.2181,"MEAN_ANOMALY":276.9165,"EPHEMERIS_TYPE":0,"CLASSIFICATION_TYPE":"U","NORAD_CAT_ID":45445,"ELEMENT_SET_NO":999,"REV_AT_EPOCH":29362,"BSTAR":0.0017136000000000002,"MEAN_MOTION_DOT":6.2e-06,"MEAN_MOTION_DDOT":0.0},{"OBJECT_NAME":"ONEWEB-0068","OBJECT_ID":"2020-020Y","EPOCH":"2026-04-09T06:10:36.596064","MEAN_MOTION":13.11417857,"ECCENTRICITY":0.0001942,"INCLINATION":87.8923,"RA_OF_ASC_NODE":34.7599,"ARG_OF_PERICENTER":84.97,"MEAN_ANOMALY":275.1649,"EPHEMERIS_TYPE":0,"CLASSIFICATION_TYPE":"U","NORAD_CAT_ID":45446,"ELEMENT_SET_NO":999,"REV_AT_EPOCH":29356,"BSTAR":0.0011088,"MEAN_MOTION_DOT":4.06e-06,"MEAN_MOTION_DDOT":0.0},{"OBJECT_NAME":"ONEWEB-0046","OBJECT_ID":"2020-020Z","EPOCH":"2026-04-09T05:58:35.069664","MEAN_MOTION":13.11417961,"ECCENTRICITY":0.0001665,"INCLINATION":87.8923,"RA_OF_ASC_NODE":34.7684,"ARG_OF_PERICENTER":84.6873,"MEAN_ANOMALY":275.4445,"EPHEMERIS_TYPE":0,"CLASSIFICATION_TYPE":"U","NORAD_CAT_ID":45447,"ELEMENT_SET_NO":999,"REV_AT_EPOCH":29357,"BSTAR":0.00017843999999999998,"MEAN_MOTION_DOT":7.6e-07,"MEAN_MOTION_DDOT":0.0},{"OBJECT_NAME":"ONEWEB-0063","OBJECT_ID":"2020-020AA","EPOCH":"2026-04-09T06:40:05.641248","MEAN_MOTION":13.11414253,"ECCENTRICITY":0.0001606,"INCLINATION":87.8922,"RA_OF_ASC_NODE":34.7603,"ARG_OF_PERICENTER":79.5943,"MEAN_ANOMALY":280.5366,"EPHEMERIS_TYPE":0,"CLASSIFICATION_TYPE":"U","NORAD_CAT_ID":45448,"ELEMENT_SET_NO":999,"REV_AT_EPOCH":29366,"BSTAR":0.0012463,"MEAN_MOTION_DOT":4.54e-06,"MEAN_MOTION_DDOT":0.0},{"OBJECT_NAME":"ONEWEB-0019","OBJECT_ID":"2020-020AB","EPOCH":"2026-04-09T05:46:10.374240","MEAN_MOTION":13.11417613,"ECCENTRICITY":0.0001988,"INCLINATION":87.8918,"RA_OF_ASC_NODE":34.7588,"ARG_OF_PERICENTER":75.5155,"MEAN_ANOMALY":284.6193,"EPHEMERIS_TYPE":0,"CLASSIFICATION_TYPE":"U","NORAD_CAT_ID":45449,"ELEMENT_SET_NO":999,"REV_AT_EPOCH":29350,"BSTAR":-0.00090221,"MEAN_MOTION_DOT":-3.07e-06,"MEAN_MOTION_DDOT":0.0}]